{
  "type": "FeatureCollection",
  "features": [
    {
      "type": "Feature",
      "properties": {
        "norad_id": 60182,
        "name": "ALOS-4 (DAICHI-4)",
        "group": "resource",
        "lat": -71.8761253946629,
        "lon": -113.98944205471123,
        "alt_km": 639.162858544134,
        "timestamp": "2025-12-22T11:33:20.087356+00:00",
        "meta_object_name": "ALOS-4 (DAICHI-4)",
        "meta_object_id": "2024-123A",
        "meta_epoch": "2025-12-20T19:27:23.067360",
        "meta_mean_motion": 14.79476697,
        "meta_eccentricity": 0.00013881,
        "meta_inclination": 97.9224,
        "meta_ra_of_asc_node": 89.5428,
        "meta_arg_of_pericenter": 101.339,
        "meta_mean_anomaly": 258.7977,
        "meta_ephemeris_type": 0,
        "meta_classification_type": "U",
        "meta_norad_cat_id": 60182,
        "meta_element_set_no": 999,
        "meta_rev_at_epoch": 7950,
        "meta_bstar": 0.00018374076,
        "meta_mean_motion_dot": 1.321e-05,
        "meta_mean_motion_ddot": 0,
        "tle_line1": "1 60182U 24123A   25354.81068365  .00001321  00000+0  18374-3 0  9997",
        "tle_line2": "2 60182  97.9224  89.5428 0001388 101.3390 258.7977 14.79476697 79501"
      },
      "geometry": {
        "type": "Point",
        "coordinates": [
          -113.98944205471123,
          -71.8761253946629
        ]
      }
    },
    {
      "type": "Feature",
      "properties": {
        "norad_id": 60452,
        "name": "LEGION 3",
        "group": "resource",
        "lat": -18.109686863539757,
        "lon": 97.0073424459951,
        "alt_km": 512.7401960428579,
        "timestamp": "2025-12-22T11:33:20.087366+00:00",
        "meta_object_name": "LEGION 3",
        "meta_object_id": "2024-146A",
        "meta_epoch": "2025-12-22T02:44:29.429664",
        "meta_mean_motion": 15.15851241,
        "meta_eccentricity": 0.0015694,
        "meta_inclination": 45.0011,
        "meta_ra_of_asc_node": 259.8753,
        "meta_arg_of_pericenter": 248.9219,
        "meta_mean_anomaly": 110.9981,
        "meta_ephemeris_type": 0,
        "meta_classification_type": "U",
        "meta_norad_cat_id": 60452,
        "meta_element_set_no": 999,
        "meta_rev_at_epoch": 7515,
        "meta_bstar": 0.00024417,
        "meta_mean_motion_dot": 4.499e-05,
        "meta_mean_motion_ddot": 0,
        "tle_line1": "1 60452U 24146A   25356.11422951  .00004499  00000+0  24417-3 0  9996",
        "tle_line2": "2 60452  45.0011 259.8753 0015694 248.9219 110.9981 15.15851241 75159"
      },
      "geometry": {
        "type": "Point",
        "coordinates": [
          97.0073424459951,
          -18.109686863539757
        ]
      }
    },
    {
      "type": "Feature",
      "properties": {
        "norad_id": 60453,
        "name": "LEGION 4",
        "group": "resource",
        "lat": -17.43659754385834,
        "lon": -172.0235798811203,
        "alt_km": 525.6295766142384,
        "timestamp": "2025-12-22T11:33:20.087377+00:00",
        "meta_object_name": "LEGION 4",
        "meta_object_id": "2024-146B",
        "meta_epoch": "2025-12-22T01:09:57.464064",
        "meta_mean_motion": 15.15915063,
        "meta_eccentricity": 0.0008504,
        "meta_inclination": 45.0392,
        "meta_ra_of_asc_node": 352.0046,
        "meta_arg_of_pericenter": 1.8461,
        "meta_mean_anomaly": 358.2448,
        "meta_ephemeris_type": 0,
        "meta_classification_type": "U",
        "meta_norad_cat_id": 60453,
        "meta_element_set_no": 999,
        "meta_rev_at_epoch": 7399,
        "meta_bstar": 0.00028472,
        "meta_mean_motion_dot": 5.291e-05,
        "meta_mean_motion_ddot": 0,
        "tle_line1": "1 60453U 24146B   25356.04858176  .00005291  00000+0  28472-3 0  9997",
        "tle_line2": "2 60453  45.0392 352.0046 0008504   1.8461 358.2448 15.15915063 73998"
      },
      "geometry": {
        "type": "Point",
        "coordinates": [
          -172.0235798811203,
          -17.43659754385834
        ]
      }
    },
    {
      "type": "Feature",
      "properties": {
        "norad_id": 60989,
        "name": "SENTINEL-2C",
        "group": "resource",
        "lat": 64.4692493713117,
        "lon": -92.77922766824362,
        "alt_km": 781.8689065907629,
        "timestamp": "2025-12-22T11:33:20.087387+00:00",
        "meta_object_name": "SENTINEL-2C",
        "meta_object_id": "2024-157A",
        "meta_epoch": "2025-12-22T02:37:57.768096",
        "meta_mean_motion": 14.30821207,
        "meta_eccentricity": 0.0001193,
        "meta_inclination": 98.5671,
        "meta_ra_of_asc_node": 68.4569,
        "meta_arg_of_pericenter": 95.079,
        "meta_mean_anomaly": 265.0529,
        "meta_ephemeris_type": 0,
        "meta_classification_type": "U",
        "meta_norad_cat_id": 60989,
        "meta_element_set_no": 999,
        "meta_rev_at_epoch": 6766,
        "meta_bstar": 7.3686e-05,
        "meta_mean_motion_dot": 1.5e-06,
        "meta_mean_motion_ddot": 0,
        "tle_line1": "1 60989U 24157A   25356.10969639  .00000150  00000+0  73686-4 0  9994",
        "tle_line2": "2 60989  98.5671  68.4569 0001193  95.0790 265.0529 14.30821207 67664"
      },
      "geometry": {
        "type": "Point",
        "coordinates": [
          -92.77922766824362,
          64.4692493713117
        ]
      }
    },
    {
      "type": "Feature",
      "properties": {
        "norad_id": 61735,
        "name": "IONOSFERA-M 1",
        "group": "resource",
        "lat": 78.9514178955849,
        "lon": 98.23622424828412,
        "alt_km": 808.8057615902526,
        "timestamp": "2025-12-22T11:33:20.087399+00:00",
        "meta_object_name": "IONOSFERA-M 1",
        "meta_object_id": "2024-199A",
        "meta_epoch": "2025-12-22T04:21:03.621024",
        "meta_mean_motion": 14.22716102,
        "meta_eccentricity": 4.98e-05,
        "meta_inclination": 98.7397,
        "meta_ra_of_asc_node": 225.9568,
        "meta_arg_of_pericenter": 8.6514,
        "meta_mean_anomaly": 351.4673,
        "meta_ephemeris_type": 0,
        "meta_classification_type": "U",
        "meta_norad_cat_id": 61735,
        "meta_element_set_no": 999,
        "meta_rev_at_epoch": 10253,
        "meta_bstar": 5.0142e-05,
        "meta_mean_motion_dot": 6.8e-07,
        "meta_mean_motion_ddot": 0,
        "tle_line1": "1 61735U 24199A   25356.18129191  .00000068  00000+0  50142-4 0  9999",
        "tle_line2": "2 61735  98.7397 225.9568 0000498   8.6514 351.4673 14.22716102102535"
      },
      "geometry": {
        "type": "Point",
        "coordinates": [
          98.23622424828412,
          78.9514178955849
        ]
      }
    },
    {
      "type": "Feature",
      "properties": {
        "norad_id": 61736,
        "name": "IONOSFERA-M 2",
        "group": "resource",
        "lat": -77.1311696375158,
        "lon": -91.50872267849311,
        "alt_km": 824.7992581669241,
        "timestamp": "2025-12-22T11:33:20.087412+00:00",
        "meta_object_name": "IONOSFERA-M 2",
        "meta_object_id": "2024-199B",
        "meta_epoch": "2025-12-22T05:10:55.913952",
        "meta_mean_motion": 14.22718253,
        "meta_eccentricity": 0.0001829,
        "meta_inclination": 98.7396,
        "meta_ra_of_asc_node": 225.9035,
        "meta_arg_of_pericenter": 98.421,
        "meta_mean_anomaly": 261.7176,
        "meta_ephemeris_type": 0,
        "meta_classification_type": "U",
        "meta_norad_cat_id": 61736,
        "meta_element_set_no": 999,
        "meta_rev_at_epoch": 10566,
        "meta_bstar": 4.849e-05,
        "meta_mean_motion_dot": 6.4e-07,
        "meta_mean_motion_ddot": 0,
        "tle_line1": "1 61736U 24199B   25356.21592493  .00000064  00000+0  48490-4 0  9992",
        "tle_line2": "2 61736  98.7396 225.9035 0001829  98.4210 261.7176 14.22718253105660"
      },
      "geometry": {
        "type": "Point",
        "coordinates": [
          -91.50872267849311,
          -77.1311696375158
        ]
      }
    },
    {
      "type": "Feature",
      "properties": {
        "norad_id": 63772,
        "name": "BIOMASS",
        "group": "resource",
        "lat": -59.94898207411692,
        "lon": -12.846665335294237,
        "alt_km": 676.784424322017,
        "timestamp": "2025-12-22T11:33:20.087422+00:00",
        "meta_object_name": "BIOMASS",
        "meta_object_id": "2025-090A",
        "meta_epoch": "2025-12-22T00:38:34.757088",
        "meta_mean_motion": 14.67536549,
        "meta_eccentricity": 0.0001075,
        "meta_inclination": 98.0697,
        "meta_ra_of_asc_node": 180.901,
        "meta_arg_of_pericenter": 83.9982,
        "meta_mean_anomaly": 276.1345,
        "meta_ephemeris_type": 0,
        "meta_classification_type": "U",
        "meta_norad_cat_id": 63772,
        "meta_element_set_no": 999,
        "meta_rev_at_epoch": 3470,
        "meta_bstar": 0.0002174,
        "meta_mean_motion_dot": 1.185e-05,
        "meta_mean_motion_ddot": 0,
        "tle_line1": "1 63772U 25090A   25356.02679117  .00001185  00000+0  21740-3 0  9996",
        "tle_line2": "2 63772  98.0697 180.9010 0001075  83.9982 276.1345 14.67536549 34709"
      },
      "geometry": {
        "type": "Point",
        "coordinates": [
          -12.846665335294237,
          -59.94898207411692
        ]
      }
    }
  ]
}